[{"OBJECT_NAME":"STARLINK-36394","OBJECT_ID":"2026-016F","EPOCH":"2026-03-09T17:11:11.874624","MEAN_MOTION":15.75240486,"ECCENTRICITY":0.00013847,"INCLINATION":97.2853,"RA_OF_ASC_NODE":129.1435,"ARG_OF_PERICENTER":80.6821,"MEAN_ANOMALY":279.4601,"EPHEMERIS_TYPE":0,"CLASSIFICATION_TYPE":"U","NORAD_CAT_ID":67566,"ELEMENT_SET_NO":999,"REV_AT_EPOCH":680,"BSTAR":0.0013747673,"MEAN_MOTION_DOT":0.00210519,"MEAN_MOTION_DDOT":0},{"OBJECT_NAME":"ATLAS CENTAUR R\/B","OBJECT_ID":"1980-098B","EPOCH":"2026-03-09T08:31:46.709472","MEAN_MOTION":7.13627125,"ECCENTRICITY":0.41019646,"INCLINATION":23.6087,"RA_OF_ASC_NODE":194.4035,"ARG_OF_PERICENTER":114.1749,"MEAN_ANOMALY":293.5929,"EPHEMERIS_TYPE":0,"CLASSIFICATION_TYPE":"U","NORAD_CAT_ID":12445,"ELEMENT_SET_NO":999,"REV_AT_EPOCH":5694,"BSTAR":0.0011574121,"MEAN_MOTION_DOT":6.012e-5,"MEAN_MOTION_DDOT":0}]
